{
  "type": "FeatureCollection",
  "features": [
    {
      "type": "Feature",
      "properties": {
        "norad_id": 28890,
        "name": "BEIJING 1",
        "group": "dmc",
        "lat": -17.96242256964317,
        "lon": -70.71815864894201,
        "alt_km": 680.4663523788895,
        "timestamp": "2025-12-10T11:33:53.057965+00:00",
        "meta_object_name": "BEIJING 1",
        "meta_object_id": "2005-043A",
        "meta_epoch": "2025-12-10T04:05:57.896736",
        "meta_mean_motion": 14.63361209,
        "meta_eccentricity": 0.001516,
        "meta_inclination": 98.2658,
        "meta_ra_of_asc_node": 111.6714,
        "meta_arg_of_pericenter": 148.8906,
        "meta_mean_anomaly": 211.3197,
        "meta_ephemeris_type": 0,
        "meta_classification_type": "U",
        "meta_norad_cat_id": 28890,
        "meta_element_set_no": 999,
        "meta_rev_at_epoch": 7300,
        "meta_bstar": 7.8387e-05,
        "meta_mean_motion_dot": 3.57e-06,
        "meta_mean_motion_ddot": 0,
        "tle_line1": "1 28890U 05043A   25344.17080899  .00000357  00000+0  78387-4 0  9990",
        "tle_line2": "2 28890  98.2658 111.6714 0015160 148.8906 211.3197 14.63361209 73006"
      },
      "geometry": {
        "type": "Point",
        "coordinates": [
          -70.71815864894201,
          -17.96242256964317
        ]
      }
    },
    {
      "type": "Feature",
      "properties": {
        "norad_id": 33320,
        "name": "HUANJING 1A (HJ-1A)",
        "group": "dmc",
        "lat": 61.920238553742486,
        "lon": -41.72575045672277,
        "alt_km": 599.3755225348405,
        "timestamp": "2025-12-10T11:33:53.057989+00:00",
        "meta_object_name": "HUANJING 1A (HJ-1A)",
        "meta_object_id": "2008-041A",
        "meta_epoch": "2025-12-10T04:48:27.363744",
        "meta_mean_motion": 14.83382341,
        "meta_eccentricity": 0.0020373,
        "meta_inclination": 97.6542,
        "meta_ra_of_asc_node": 332.6049,
        "meta_arg_of_pericenter": 42.4277,
        "meta_mean_anomaly": 317.8508,
        "meta_ephemeris_type": 0,
        "meta_classification_type": "U",
        "meta_norad_cat_id": 33320,
        "meta_element_set_no": 999,
        "meta_rev_at_epoch": 93038,
        "meta_bstar": 0.00035723,
        "meta_mean_motion_dot": 2.889e-05,
        "meta_mean_motion_ddot": 0,
        "tle_line1": "1 33320U 08041A   25344.20031671  .00002889  00000+0  35723-3 0  9991",
        "tle_line2": "2 33320  97.6542 332.6049 0020373  42.4277 317.8508 14.83382341930386"
      },
      "geometry": {
        "type": "Point",
        "coordinates": [
          -41.72575045672277,
          61.920238553742486
        ]
      }
    },
    {
      "type": "Feature",
      "properties": {
        "norad_id": 33321,
        "name": "HUANJING 1B (HJ-1B)",
        "group": "dmc",
        "lat": -70.13207524503767,
        "lon": -1.6171634948770555,
        "alt_km": 651.8851436410114,
        "timestamp": "2025-12-10T11:33:53.058032+00:00",
        "meta_object_name": "HUANJING 1B (HJ-1B)",
        "meta_object_id": "2008-041B",
        "meta_epoch": "2025-12-10T03:47:26.275200",
        "meta_mean_motion": 14.82811819,
        "meta_eccentricity": 0.003829,
        "meta_inclination": 97.64,
        "meta_ra_of_asc_node": 336.2679,
        "meta_arg_of_pericenter": 83.8034,
        "meta_mean_anomaly": 276.754,
        "meta_ephemeris_type": 0,
        "meta_classification_type": "U",
        "meta_norad_cat_id": 33321,
        "meta_element_set_no": 999,
        "meta_rev_at_epoch": 93039,
        "meta_bstar": 0.0002809,
        "meta_mean_motion_dot": 2.25e-05,
        "meta_mean_motion_ddot": 0,
        "tle_line1": "1 33321U 08041B   25344.15794300  .00002250  00000+0  28090-3 0  9992",
        "tle_line2": "2 33321  97.6400 336.2679 0038290  83.8034 276.7540 14.82811819930392"
      },
      "geometry": {
        "type": "Point",
        "coordinates": [
          -1.6171634948770555,
          -70.13207524503767
        ]
      }
    },
    {
      "type": "Feature",
      "properties": {
        "norad_id": 33446,
        "name": "YAOGAN-4",
        "group": "dmc",
        "lat": -21.110909078485133,
        "lon": 91.52296665748136,
        "alt_km": 632.4140717111122,
        "timestamp": "2025-12-10T11:33:53.058046+00:00",
        "meta_object_name": "YAOGAN-4",
        "meta_object_id": "2008-061A",
        "meta_epoch": "2025-12-09T18:27:44.192736",
        "meta_mean_motion": 14.82669066,
        "meta_eccentricity": 0.0013834,
        "meta_inclination": 97.918,
        "meta_ra_of_asc_node": 273.8977,
        "meta_arg_of_pericenter": 333.4194,
        "meta_mean_anomaly": 26.6309,
        "meta_ephemeris_type": 0,
        "meta_classification_type": "U",
        "meta_norad_cat_id": 33446,
        "meta_element_set_no": 999,
        "meta_rev_at_epoch": 91759,
        "meta_bstar": 0.000361,
        "meta_mean_motion_dot": 2.862e-05,
        "meta_mean_motion_ddot": 0,
        "tle_line1": "1 33446U 08061A   25343.76926149  .00002862  00000+0  36100-3 0  9996",
        "tle_line2": "2 33446  97.9180 273.8977 0013834 333.4194  26.6309 14.82669066917590"
      },
      "geometry": {
        "type": "Point",
        "coordinates": [
          91.52296665748136,
          -21.110909078485133
        ]
      }
    },
    {
      "type": "Feature",
      "properties": {
        "norad_id": 35681,
        "name": "DEIMOS-1",
        "group": "dmc",
        "lat": 33.43350727057213,
        "lon": 140.05512369434118,
        "alt_km": 641.998728670811,
        "timestamp": "2025-12-10T11:33:53.058058+00:00",
        "meta_object_name": "DEIMOS-1",
        "meta_object_id": "2009-041A",
        "meta_epoch": "2025-12-10T04:53:57.950880",
        "meta_mean_motion": 14.74944946,
        "meta_eccentricity": 0.000275,
        "meta_inclination": 97.7148,
        "meta_ra_of_asc_node": 144.9252,
        "meta_arg_of_pericenter": 83.5292,
        "meta_mean_anomaly": 276.6231,
        "meta_ephemeris_type": 0,
        "meta_classification_type": "U",
        "meta_norad_cat_id": 35681,
        "meta_element_set_no": 999,
        "meta_rev_at_epoch": 87902,
        "meta_bstar": 0.0001255,
        "meta_mean_motion_dot": 7.96e-06,
        "meta_mean_motion_ddot": 0,
        "tle_line1": "1 35681U 09041A   25344.20414295  .00000796  00000+0  12550-3 0  9999",
        "tle_line2": "2 35681  97.7148 144.9252 0002750  83.5292 276.6231 14.74944946879026"
      },
      "geometry": {
        "type": "Point",
        "coordinates": [
          140.05512369434118,
          33.43350727057213
        ]
      }
    },
    {
      "type": "Feature",
      "properties": {
        "norad_id": 35683,
        "name": "UK-DMC 2",
        "group": "dmc",
        "lat": 42.91297992133,
        "lon": 112.0726074855728,
        "alt_km": 639.0872379180191,
        "timestamp": "2025-12-10T11:33:53.058069+00:00",
        "meta_object_name": "UK-DMC 2",
        "meta_object_id": "2009-041C",
        "meta_epoch": "2025-12-10T04:51:32.085216",
        "meta_mean_motion": 14.75611276,
        "meta_eccentricity": 0.0001396,
        "meta_inclination": 97.8565,
        "meta_ra_of_asc_node": 119.1766,
        "meta_arg_of_pericenter": 97.1544,
        "meta_mean_anomaly": 262.9825,
        "meta_ephemeris_type": 0,
        "meta_classification_type": "U",
        "meta_norad_cat_id": 35683,
        "meta_element_set_no": 999,
        "meta_rev_at_epoch": 87869,
        "meta_bstar": 0.00018655,
        "meta_mean_motion_dot": 1.224e-05,
        "meta_mean_motion_ddot": 0,
        "tle_line1": "1 35683U 09041C   25344.20245469  .00001224  00000+0  18655-3 0  9995",
        "tle_line2": "2 35683  97.8565 119.1766 0001396  97.1544 262.9825 14.75611276878699"
      },
      "geometry": {
        "type": "Point",
        "coordinates": [
          112.0726074855728,
          42.91297992133
        ]
      }
    },
    {
      "type": "Feature",
      "properties": {
        "norad_id": 40715,
        "name": "DMC3-FM1",
        "group": "dmc",
        "lat": 12.642515014967097,
        "lon": -149.97575003313008,
        "alt_km": 610.9394431030869,
        "timestamp": "2025-12-10T11:33:53.058080+00:00",
        "meta_object_name": "DMC3-FM1",
        "meta_object_id": "2015-032A",
        "meta_epoch": "2025-12-10T05:02:26.827872",
        "meta_mean_motion": 14.85435412,
        "meta_eccentricity": 0.000484,
        "meta_inclination": 97.669,
        "meta_ra_of_asc_node": 211.4944,
        "meta_arg_of_pericenter": 332.006,
        "meta_mean_anomaly": 28.0894,
        "meta_ephemeris_type": 0,
        "meta_classification_type": "U",
        "meta_norad_cat_id": 40715,
        "meta_element_set_no": 999,
        "meta_rev_at_epoch": 56185,
        "meta_bstar": 0.00019253,
        "meta_mean_motion_dot": 1.608e-05,
        "meta_mean_motion_ddot": 0,
        "tle_line1": "1 40715U 15032A   25344.21003273  .00001608  00000+0  19253-3 0  9991",
        "tle_line2": "2 40715  97.6690 211.4944 0004840 332.0060  28.0894 14.85435412561854"
      },
      "geometry": {
        "type": "Point",
        "coordinates": [
          -149.97575003313008,
          12.642515014967097
        ]
      }
    },
    {
      "type": "Feature",
      "properties": {
        "norad_id": 40716,
        "name": "DMC3-FM2",
        "group": "dmc",
        "lat": -70.99898361374638,
        "lon": 10.144721381604704,
        "alt_km": 619.0360219697914,
        "timestamp": "2025-12-10T11:33:53.058089+00:00",
        "meta_object_name": "DMC3-FM2",
        "meta_object_id": "2015-032B",
        "meta_epoch": "2025-12-10T03:57:50.740704",
        "meta_mean_motion": 14.85433048,
        "meta_eccentricity": 0.0005583,
        "meta_inclination": 97.6746,
        "meta_ra_of_asc_node": 212.8933,
        "meta_arg_of_pericenter": 336.3824,
        "meta_mean_anomaly": 23.7135,
        "meta_ephemeris_type": 0,
        "meta_classification_type": "U",
        "meta_norad_cat_id": 40716,
        "meta_element_set_no": 999,
        "meta_rev_at_epoch": 56184,
        "meta_bstar": 7.2659e-05,
        "meta_mean_motion_dot": 5.75e-06,
        "meta_mean_motion_ddot": 0,
        "tle_line1": "1 40716U 15032B   25344.16517061  .00000575  00000+0  72659-4 0  9993",
        "tle_line2": "2 40716  97.6746 212.8933 0005583 336.3824  23.7135 14.85433048561842"
      },
      "geometry": {
        "type": "Point",
        "coordinates": [
          10.144721381604704,
          -70.99898361374638
        ]
      }
    },
    {
      "type": "Feature",
      "properties": {
        "norad_id": 40717,
        "name": "DMC3-FM3",
        "group": "dmc",
        "lat": 42.30859696900203,
        "lon": 41.8849409792908,
        "alt_km": 612.0702212552678,
        "timestamp": "2025-12-10T11:33:53.058100+00:00",
        "meta_object_name": "DMC3-FM3",
        "meta_object_id": "2015-032C",
        "meta_epoch": "2025-12-10T04:28:57.525024",
        "meta_mean_motion": 14.85423178,
        "meta_eccentricity": 0.0004924,
        "meta_inclination": 97.68,
        "meta_ra_of_asc_node": 214.5452,
        "meta_arg_of_pericenter": 337.9016,
        "meta_mean_anomaly": 22.1986,
        "meta_ephemeris_type": 0,
        "meta_classification_type": "U",
        "meta_norad_cat_id": 40717,
        "meta_element_set_no": 999,
        "meta_rev_at_epoch": 56185,
        "meta_bstar": 9.9959e-05,
        "meta_mean_motion_dot": 8.1e-06,
        "meta_mean_motion_ddot": 0,
        "tle_line1": "1 40717U 15032C   25344.18677691  .00000810  00000+0  99959-4 0  9996",
        "tle_line2": "2 40717  97.6800 214.5452 0004924 337.9016  22.1986 14.85423178561858"
      },
      "geometry": {
        "type": "Point",
        "coordinates": [
          41.8849409792908,
          42.30859696900203
        ]
      }
    }
  ]
}